BEIDOU-3 IGSO-2         
1 44337U 19035A   26043.71642076 -.00000154  00000+0  00000+0 0  9996
2 44337  55.2350 159.9576 0038390 205.0783 152.3921  1.00252064 24417
COSMOS 2539             
1 44457U 19048A   26041.97859012  .00000089  00000+0  00000+0 0  9995
2 44457   0.0191 111.2105 0000311 253.2051 140.8919  1.00270371 23964
EDRS-C                  
1 44475U 19049A   26043.78732796 -.00000255  00000+0  00000+0 0  9992
2 44475   0.0204 126.7741 0000978 225.9174 216.0511  1.00270672 23965
INTELSAT 39 (IS-39)     
1 44476U 19049B   26044.41327356  .00000040  00000+0  00000+0 0  9997
2 44476   0.0148  93.9373 0000894  42.6091 217.5953  1.00271248 23885
AMOS-17                 
1 44479U 19050A   26044.36711231  .00000116  00000+0  00000+0 0  9999
2 44479   0.0243 238.7356 0001135  97.4753 316.3472  1.00275261 23946
AEHF-5 (USA 292)        
1 44481U 19051A   26044.49084060 -.00000248  00000+0  00000+0 0  9997
2 44481   1.5870 327.5083 0071502   3.1338  82.6233  1.00269156 24027
EUTELSAT 5 WEST B       
1 44624U 19067A   26044.32859979 -.00000036  00000+0  00000+0 0  9999
2 44624   0.1045 301.8675 0002952  33.6244 281.1336  1.00271708 23197
TJS-4                   
1 44637U 19070A   26042.70589605 -.00000162  00000+0  00000+0 0  9993
2 44637   0.0762 101.2000 0002678 250.4278 127.7916  1.00274001 23212
BEIDOU-3 IGSO-3         
1 44709U 19073A   26044.05441142 -.00000137  00000+0  00000+0 0  9991
2 44709  55.0106 282.2412 0040291 189.4839 170.5427  1.00275403 23218
TIBA-1                  
1 44800U 19080A   26044.47931389  .00000162  00000+0  00000+0 0  9991
2 44800   0.0554  16.9180 0001783 318.4799  16.1267  1.00272663 22810
INMARSAT GX5            
1 44801U 19080B   26044.33163314  .00000081  00000+0  00000+0 0  9992
2 44801   0.0392   8.8851 0002078 329.8679 294.9806  1.00270414  5545
JCSAT-18 (KACIFIC 1)    
1 44868U 19091A   26044.44913028 -.00000195  00000+0  00000+0 0  9991
2 44868   0.0419 270.4036 0000262 154.0905  30.6231  1.00268868 22774
ELEKTRO-L 3             
1 44903U 19095A   26044.48737392 -.00000090  00000+0  00000+0 0  9991
2 44903   0.0679 280.6410 0001340  43.6074  70.7591  1.00271415 22461
SHIJIAN-20 (SJ-20)      
1 44910U 19097A   26044.34087590 -.00000111  00000+0  00000+0 0  9998
2 44910   4.5996  76.6077 0008596 260.5087   6.8981  1.00270822 22459
TJS-5                   
1 44978U 20002A   26043.92304866 -.00000335  00000+0  00000+0 0  9999
2 44978   0.3296 269.3555 0003766 136.9238 176.4502  1.00269228 22451
GSAT-30                 
1 45026U 20005A   26044.42405903 -.00000158  00000+0  00000+0 0  9990
2 45026   0.0350  96.9604 0000308 265.1050  17.0363  1.00272097 22261
EUTELSAT KONNECT        
1 45027U 20005B   26044.37267022  .00000056  00000+0  00000+0 0  9999
2 45027   0.0638  97.9105 0000592 189.7251 357.1232  1.00270788 23097
JCSAT-17                
1 45245U 20013A   26044.28526623 -.00000301  00000+0  00000+0 0  9999
2 45245   5.3956 355.6384 0004425 339.9329  46.4178  1.00272409 21993
GEO-KOMPSAT-2B          
1 45246U 20013B   26044.42636028 -.00000337  00000+0  00000+0 0  9996
2 45246   0.0522 276.8058 0001810  33.0530 115.3372  1.00271437 22036
BEIDOU-3 G2             
1 45344U 20017A   26044.48815394 -.00000134  00000+0  00000+0 0  9995
2 45344   2.6161  45.2194 0002450 293.7027  60.3538  1.00271782 22012
AEHF-6 (USA 298)        
1 45465U 20022B   26044.42835362 -.00000289  00000+0  00000+0 0  9997
2 45465   2.8190 299.6712 0049165  14.1316 121.5048  1.00277221 21773
BEIDOU-3 G3             
1 45807U 20040A   26044.28023955 -.00000348  00000+0  00000+0 0  9994
2 45807   2.1419  67.0481 0004738 317.8706 329.8242  1.00273937 20827
APSTAR-6D               
1 45863U 20045A   26040.79040823 -.00000309  00000+0  00000+0 0  9993
2 45863   0.0400  97.7815 0002795 346.3141 114.3238  1.00273114 20580
KOREASAT 116            
1 45920U 20048A   26044.42393361 -.00000355  00000+0  00000+0 0  9993
2 45920   0.0011 305.0426 0000627  42.3990  64.7842  1.00268077 20392
EXPRESS 103             
1 45985U 20053A   26044.49136061 -.00000274  00000+0  00000+0 0  9999
2 45985   0.0143 233.2797 0000118 333.5099 210.1090  1.00272651 20409
EXPRESS 80              
1 45986U 20053B   26036.40220050 -.00000183  00000+0  00000+0 0  9993
2 45986   0.0458  49.3767 0018820 309.7367   0.8482  1.00491915 20319
BSAT-4B                 
1 46112U 20056A   26044.35139324 -.00000343  00000+0  00000+0 0  9992
2 46112   0.0321 176.8919 0001086 267.4880 295.3378  1.00272090 20148
MEV-2                   
1 46113U 20056B   26044.18677661 -.00000004  00000+0  00000+0 0  9999
2 46113   0.0127 106.8326 0000940 259.9265 202.6923  1.00270811 19176
GALAXY 30 (G-30)        
1 46114U 20056C   26044.44750705  .00000043  00000+0  00000+0 0  9992
2 46114   0.0140 109.7333 0001852 232.3343 197.4998  1.00272854 20058
GAOFEN-13 01            
1 46610U 20071A   26043.78247461 -.00000355  00000+0  00000+0 0  9993
2 46610   0.1978  85.9727 0042903 118.0160 338.7352  1.00268628 19674
TIANTONG-1 2            
1 46916U 20082A   26044.49708064 -.00000348  00000+0  00000+0 0  9996
2 46916   0.9843 312.9821 0003705  23.9003 110.5237  1.00270110 19416
LUCAS (JDRS-1)          
1 47202U 20089A   26044.41899359 -.00000229  00000+0  00000+0 0  9990
2 47202   0.0581 273.4426 0002703  53.0895  58.5209  1.00271013 19173
SXM-7                   
1 47240U 20096A   26043.81341477 -.00000198  00000+0  00000+0 0  9991
2 47240   0.0200 111.9514 0004425  12.2254 226.2924  1.00271663  6193
CMS-01                  
1 47256U 20099A   26044.42405903 -.00000158  00000+0  00000+0 0  9990
2 47256   0.0619  95.5391 0006715 189.6798  93.8846  1.00271797 18956
TURKSAT 5A              
1 47306U 21001A   26044.36155737  .00000161  00000+0  00000+0 0  9993
2 47306   0.0215  90.3614 0000308  21.9676 192.1252  1.00271299 18726
TIANTONG-1 3            
1 47321U 21003A   26044.48841394 -.00000145  00000+0  00000+0 0  9999
2 47321   1.8731 332.0394 0006633 335.1726  93.6558  1.00273428 18729
TJS-6                   
1 47613U 21010A   26044.53447399  .00000049  00000+0  00000+0 0  9996
2 47613   0.2799  91.9435 0003359 281.0223 141.4532  1.00271676 18570
SBIRS GEO-5 (USA 315)   
1 48618U 21042A   26044.34818655 -.00000253  00000+0  00000+0 0  9991
2 48618   5.2616 328.1966 0001434 330.1554  64.1577  1.00271920 17535
FENGYUN 4B              
1 48808U 21047A   26044.49300729 -.00000323  00000+0  00000+0 0  9999
2 48808   0.1425  74.7287 0009217 300.0247  50.8864  1.00269575 17321
SXM-8                   
1 48838U 21049A   26044.24149933 -.00000198  00000+0  00000+0 0  9995
2 48838   0.0178  49.8640 0004367 358.0563  97.1067  1.00271018 17356
TIANLIAN 1-05           
1 49011U 21063A   26042.76404970  .00000116  00000+0  00000+0 0  9994
2 49011   1.2694  81.7823 0004873 218.1296 133.7806  1.00274720 16816
STAR ONE D2             
1 49055U 21069A   26044.45842712  .00000000  00000+0  00000+0 0  9998
2 49055   0.0250 114.6151 0001238 180.0752 303.7635  1.00268796 16696
EUTELSAT QUANTUM        
1 49056U 21069B   26044.30322574  .00000000  00000+0  00000+0 0  9992
2 49056   0.0198  81.1009 0002812 246.8084 332.2995  1.00270216 16681
ZHONGXING-2E            
1 49062U 21071A   26044.49170728 -.00000284  00000+0  00000+0 0  9999
2 49062   0.0342 264.8164 0000216 177.2296 336.5006  1.00269165 16792
TJS-7                   
1 49115U 21077A   26044.49680277 -.00000118  00000+0  00000+0 0  9995
2 49115   0.1877  89.1436 0001533 263.0517 230.6981  1.00272077  8319
CHINASAT 9B             
1 49125U 21080A   26043.70785422 -.00000305  00000+0  00000+0 0  9999
2 49125   0.0145  99.6410 0002284 205.8443 193.4708  1.00269219 16407
SHIJIAN-21 (SJ-21)      
1 49330U 21094A   26044.10525578 -.00000343  00000+0  00000+0 0  9993
2 49330   4.8177  61.8818 0049061 171.7559  75.2637  1.00266634  4119
SES-17                  
1 49332U 21095A   26044.10436243 -.00000265  00000+0  00000+0 0  9999
2 49332   0.0189  60.7950 0000867 273.6097 139.1814  1.00269832 16615
SYRACUSE 4A             
1 49333U 21095B   26044.48130723  .00000000  00000+0  00000+0 0  9991
2 49333   0.0271 110.7933 0001667 209.5240  41.9630  1.00265752 16705
QZS-1R (MICHIBIKI-1R)   
1 49336U 21096A   26043.43060613 -.00000271  00000+0  00000+0 0  9990
2 49336  37.2001  81.4308 0745609 269.2332  79.4367  1.00298545 15750
ZHONGXING-1D            
1 49505U 21114A   26043.21437170 -.00000329  00000+0  00000+0 0  9995
2 49505   0.0272 117.6655 0001791 121.8033 110.1072  1.00270266 15566
STPSAT-6                
1 49817U 21118A   26044.45019373  .00000000  00000+0  00000+0 0  9998
2 49817   0.0280  99.9406 0002591 218.8672 235.1081  1.00268122 15333
LDPE-1                  
1 49818U 21118B   26044.45808044 -.00000161  00000+0  00000+0 0  9999
2 49818   3.8526  80.1141 0005086 276.9400 239.9159  0.99435033 15413
EXPRESS AMU-7           
1 50001U 21123A   26040.93514234 -.00000234  00000+0  00000+0 0  9996
2 50001   0.0100 107.1381 0000377  29.7990 124.7118  1.00271350 15260
EXPRESS AMU-3           
1 50002U 21123B   26040.32671221 -.00000327  00000+0  00000+0 0  9993
2 50002   0.0082  62.3910 0006615 208.3513  89.1557  1.00395518  5754
TIANLIAN 2-02           
1 50005U 21124A   26042.79455653 -.00000006  00000+0  00000+0 0  9993
2 50005   0.4762  88.8153 0004803 201.6345 308.3835  1.00272951 15362
TURKSAT 5B              
1 50212U 21126A   26044.48061390  .00000152  00000+0  00000+0 0  9995
2 50212   0.0752 328.5859 0005271 358.1733  31.7230  1.00274418 15055
INMARSAT 6-F1           
1 50319U 21128A   26044.34627987 -.00000166  00000+0  00000+0 0  9996
2 50319   0.0103 111.4826 0000555 318.3303 281.9756  1.00274913 15015
SHIYAN-12 01 (SY-12 01) 
1 50321U 21129A   26044.76471753 -.00000226  00000+0  00000+0 0  9991
2 50321   3.3546  81.6402 0003670 242.2934 245.4465  1.00101805 15267
